[{"OBJECT_NAME":"GHOST-3","OBJECT_ID":"2023-084AC","EPOCH":"2026-03-09T21:14:09.446784","MEAN_MOTION":15.44198134,"ECCENTRICITY":0.00064568,"INCLINATION":97.6062,"RA_OF_ASC_NODE":212.4847,"ARG_OF_PERICENTER":293.3516,"MEAN_ANOMALY":66.7052,"EPHEMERIS_TYPE":0,"CLASSIFICATION_TYPE":"U","NORAD_CAT_ID":56958,"ELEMENT_SET_NO":999,"REV_AT_EPOCH":15267,"BSTAR":0.00048344236,"MEAN_MOTION_DOT":0.00022139,"MEAN_MOTION_DDOT":0},{"OBJECT_NAME":"PEGASUS DEB","OBJECT_ID":"1994-029AG","EPOCH":"2026-03-09T11:16:42.963744","MEAN_MOTION":15.37636263,"ECCENTRICITY":0.0031206,"INCLINATION":82.0362,"RA_OF_ASC_NODE":86.2933,"ARG_OF_PERICENTER":155.6019,"MEAN_ANOMALY":204.671,"EPHEMERIS_TYPE":0,"CLASSIFICATION_TYPE":"U","NORAD_CAT_ID":23986,"ELEMENT_SET_NO":999,"REV_AT_EPOCH":61542,"BSTAR":0.00061808813,"MEAN_MOTION_DOT":0.00023279,"MEAN_MOTION_DDOT":0}]
